CCSDS_OMM_VERS = 2.0
CREATION_DATE  = 
ORIGINATOR     = 

OBJECT_NAME    = STARLINK-35860
OBJECT_ID      = 2025-283D
CENTER_NAME    = EARTH
REF_FRAME      = TEME
TIME_SYSTEM    = UTC
MEAN_ELEMENT_THEORY = SGP/SGP4

EPOCH          = 2025-12-31T02:16:45.249888
MEAN_MOTION    = 15.49368797
ECCENTRICITY   = .0001708
INCLINATION    = 53.1600
RA_OF_ASC_NODE = 343.3757
ARG_OF_PERICENTER = 14.5466
MEAN_ANOMALY   = 345.5592

EPHEMERIS_TYPE = 0
CLASSIFICATION_TYPE = U
NORAD_CAT_ID   = 66881
ELEMENT_SET_NO = 999
REV_AT_EPOCH   = 533
BSTAR          = .19956E-2
MEAN_MOTION_DOT = .112387E-2
MEAN_MOTION_DDOT = 0

CCSDS_OMM_VERS = 2.0
CREATION_DATE  = 
ORIGINATOR     = 

OBJECT_NAME    = STARLINK-35912
OBJECT_ID      = 2025-283E
CENTER_NAME    = EARTH
REF_FRAME      = TEME
TIME_SYSTEM    = UTC
MEAN_ELEMENT_THEORY = SGP/SGP4

EPOCH          = 2025-12-31T02:16:15.873024
MEAN_MOTION    = 15.49305043
ECCENTRICITY   = .0001452
INCLINATION    = 53.1599
RA_OF_ASC_NODE = 343.3749
ARG_OF_PERICENTER = 52.4567
MEAN_ANOMALY   = 307.6574

EPHEMERIS_TYPE = 0
CLASSIFICATION_TYPE = U
NORAD_CAT_ID   = 66882
ELEMENT_SET_NO = 999
REV_AT_EPOCH   = 533
BSTAR          = .24189E-2
MEAN_MOTION_DOT = .136436E-2
MEAN_MOTION_DDOT = 0

CCSDS_OMM_VERS = 2.0
CREATION_DATE  = 
ORIGINATOR     = 

OBJECT_NAME    = STARLINK-35947
OBJECT_ID      = 2025-283F
CENTER_NAME    = EARTH
REF_FRAME      = TEME
TIME_SYSTEM    = UTC
MEAN_ELEMENT_THEORY = SGP/SGP4

EPOCH          = 2025-12-31T04:00:01.998720
MEAN_MOTION    = 15.47460419
ECCENTRICITY   = .000085
INCLINATION    = 53.1594
RA_OF_ASC_NODE = 343.0296
ARG_OF_PERICENTER = 91.0424
MEAN_ANOMALY   = 311.7966

EPHEMERIS_TYPE = 0
CLASSIFICATION_TYPE = U
NORAD_CAT_ID   = 66883
ELEMENT_SET_NO = 999
REV_AT_EPOCH   = 543
BSTAR          = -.44502E-1
MEAN_MOTION_DOT = -.2063217E-1
MEAN_MOTION_DDOT = 0

CCSDS_OMM_VERS = 2.0
CREATION_DATE  = 
ORIGINATOR     = 

OBJECT_NAME    = STARLINK-36057
OBJECT_ID      = 2025-283G
CENTER_NAME    = EARTH
REF_FRAME      = TEME
TIME_SYSTEM    = UTC
MEAN_ELEMENT_THEORY = SGP/SGP4

EPOCH          = 2025-12-31T02:14:46.726368
MEAN_MOTION    = 15.49345130
ECCENTRICITY   = .0001243
INCLINATION    = 53.1597
RA_OF_ASC_NODE = 343.3671
ARG_OF_PERICENTER = 52.6270
MEAN_ANOMALY   = 307.4852

EPHEMERIS_TYPE = 0
CLASSIFICATION_TYPE = U
NORAD_CAT_ID   = 66884
ELEMENT_SET_NO = 999
REV_AT_EPOCH   = 533
BSTAR          = .18313E-2
MEAN_MOTION_DOT = .102886E-2
MEAN_MOTION_DDOT = 0

CCSDS_OMM_VERS = 2.0
CREATION_DATE  = 
ORIGINATOR     = 

OBJECT_NAME    = STARLINK-35954
OBJECT_ID      = 2025-283H
CENTER_NAME    = EARTH
REF_FRAME      = TEME
TIME_SYSTEM    = UTC
MEAN_ELEMENT_THEORY = SGP/SGP4

EPOCH          = 2025-12-31T02:15:16.255296
MEAN_MOTION    = 15.49333457
ECCENTRICITY   = .0001431
INCLINATION    = 53.1595
RA_OF_ASC_NODE = 343.3695
ARG_OF_PERICENTER = 94.2876
MEAN_ANOMALY   = 265.8297

EPHEMERIS_TYPE = 0
CLASSIFICATION_TYPE = U
NORAD_CAT_ID   = 66885
ELEMENT_SET_NO = 999
REV_AT_EPOCH   = 533
BSTAR          = .1656E-2
MEAN_MOTION_DOT = .92835E-3
MEAN_MOTION_DDOT = 0

CCSDS_OMM_VERS = 2.0
CREATION_DATE  = 
ORIGINATOR     = 

OBJECT_NAME    = STARLINK-35900
OBJECT_ID      = 2025-283J
CENTER_NAME    = EARTH
REF_FRAME      = TEME
TIME_SYSTEM    = UTC
MEAN_ELEMENT_THEORY = SGP/SGP4

EPOCH          = 2025-12-31T02:14:17.041056
MEAN_MOTION    = 15.49357747
ECCENTRICITY   = .0001531
INCLINATION    = 53.1598
RA_OF_ASC_NODE = 343.3648
ARG_OF_PERICENTER = 60.1584
MEAN_ANOMALY   = 299.9577

EPHEMERIS_TYPE = 0
CLASSIFICATION_TYPE = U
NORAD_CAT_ID   = 66886
ELEMENT_SET_NO = 999
REV_AT_EPOCH   = 533
BSTAR          = .19561E-2
MEAN_MOTION_DOT = .110074E-2
MEAN_MOTION_DDOT = 0

CCSDS_OMM_VERS = 2.0
CREATION_DATE  = 
ORIGINATOR     = 

OBJECT_NAME    = STARLINK-35925
OBJECT_ID      = 2025-283K
CENTER_NAME    = EARTH
REF_FRAME      = TEME
TIME_SYSTEM    = UTC
MEAN_ELEMENT_THEORY = SGP/SGP4

EPOCH          = 2025-12-31T00:00:02.000160
MEAN_MOTION    = 15.49382367
ECCENTRICITY   = .0001654
INCLINATION    = 53.1593
RA_OF_ASC_NODE = 343.8061
ARG_OF_PERICENTER = 92.3009
MEAN_ANOMALY   = 109.4409

EPHEMERIS_TYPE = 0
CLASSIFICATION_TYPE = U
NORAD_CAT_ID   = 66887
ELEMENT_SET_NO = 999
REV_AT_EPOCH   = 536
BSTAR          = -.25989E-2
MEAN_MOTION_DOT = -.142754E-2
MEAN_MOTION_DDOT = 0

CCSDS_OMM_VERS = 2.0
CREATION_DATE  = 
ORIGINATOR     = 

OBJECT_NAME    = STARLINK-35919
OBJECT_ID      = 2025-283L
CENTER_NAME    = EARTH
REF_FRAME      = TEME
TIME_SYSTEM    = UTC
MEAN_ELEMENT_THEORY = SGP/SGP4

EPOCH          = 2025-12-31T02:13:17.354208
MEAN_MOTION    = 15.49435077
ECCENTRICITY   = .0002826
INCLINATION    = 53.1604
RA_OF_ASC_NODE = 343.3614
ARG_OF_PERICENTER = 142.9435
MEAN_ANOMALY   = 217.1769

EPHEMERIS_TYPE = 0
CLASSIFICATION_TYPE = U
NORAD_CAT_ID   = 66888
ELEMENT_SET_NO = 999
REV_AT_EPOCH   = 533
BSTAR          = .28086E-2
MEAN_MOTION_DOT = .159705E-2
MEAN_MOTION_DDOT = 0

CCSDS_OMM_VERS = 2.0
CREATION_DATE  = 
ORIGINATOR     = 

OBJECT_NAME    = STARLINK-35852
OBJECT_ID      = 2025-283M
CENTER_NAME    = EARTH
REF_FRAME      = TEME
TIME_SYSTEM    = UTC
MEAN_ELEMENT_THEORY = SGP/SGP4

EPOCH          = 2025-12-31T02:12:48.110400
MEAN_MOTION    = 15.49430347
ECCENTRICITY   = .0001491
INCLINATION    = 53.1601
RA_OF_ASC_NODE = 343.3583
ARG_OF_PERICENTER = 60.3999
MEAN_ANOMALY   = 299.7158

EPHEMERIS_TYPE = 0
CLASSIFICATION_TYPE = U
NORAD_CAT_ID   = 66889
ELEMENT_SET_NO = 999
REV_AT_EPOCH   = 533
BSTAR          = .26468E-2
MEAN_MOTION_DOT = .15026E-2
MEAN_MOTION_DDOT = 0

CCSDS_OMM_VERS = 2.0
CREATION_DATE  = 
ORIGINATOR     = 

OBJECT_NAME    = STARLINK-35885
OBJECT_ID      = 2025-283N
CENTER_NAME    = EARTH
REF_FRAME      = TEME
TIME_SYSTEM    = UTC
MEAN_ELEMENT_THEORY = SGP/SGP4

EPOCH          = 2025-12-31T02:12:25.515072
MEAN_MOTION    = 15.49121511
ECCENTRICITY   = .0014704
INCLINATION    = 53.1601
RA_OF_ASC_NODE = 343.3568
ARG_OF_PERICENTER = 247.3305
MEAN_ANOMALY   = 112.6149

EPHEMERIS_TYPE = 0
CLASSIFICATION_TYPE = U
NORAD_CAT_ID   = 66890
ELEMENT_SET_NO = 999
REV_AT_EPOCH   = 533
BSTAR          = .21088E-2
MEAN_MOTION_DOT = .1183E-2
MEAN_MOTION_DDOT = 0

CCSDS_OMM_VERS = 2.0
CREATION_DATE  = 
ORIGINATOR     = 

OBJECT_NAME    = STARLINK-35855
OBJECT_ID      = 2025-283P
CENTER_NAME    = EARTH
REF_FRAME      = TEME
TIME_SYSTEM    = UTC
MEAN_ELEMENT_THEORY = SGP/SGP4

EPOCH          = 2025-12-31T02:11:48.459840
MEAN_MOTION    = 15.49461798
ECCENTRICITY   = .0002031
INCLINATION    = 53.1602
RA_OF_ASC_NODE = 343.3532
ARG_OF_PERICENTER = 92.9840
MEAN_ANOMALY   = 267.1401

EPHEMERIS_TYPE = 0
CLASSIFICATION_TYPE = U
NORAD_CAT_ID   = 66891
ELEMENT_SET_NO = 999
REV_AT_EPOCH   = 533
BSTAR          = .32696E-2
MEAN_MOTION_DOT = .186814E-2
MEAN_MOTION_DDOT = 0

CCSDS_OMM_VERS = 2.0
CREATION_DATE  = 
ORIGINATOR     = 

OBJECT_NAME    = STARLINK-35883
OBJECT_ID      = 2025-283Q
CENTER_NAME    = EARTH
REF_FRAME      = TEME
TIME_SYSTEM    = UTC
MEAN_ELEMENT_THEORY = SGP/SGP4

EPOCH          = 2025-12-31T02:11:18.707136
MEAN_MOTION    = 15.49428405
ECCENTRICITY   = .0001301
INCLINATION    = 53.1600
RA_OF_ASC_NODE = 343.3502
ARG_OF_PERICENTER = 129.8213
MEAN_ANOMALY   = 230.2911

EPHEMERIS_TYPE = 0
CLASSIFICATION_TYPE = U
NORAD_CAT_ID   = 66892
ELEMENT_SET_NO = 999
REV_AT_EPOCH   = 533
BSTAR          = .31873E-2
MEAN_MOTION_DOT = .181763E-2
MEAN_MOTION_DDOT = 0

CCSDS_OMM_VERS = 2.0
CREATION_DATE  = 
ORIGINATOR     = 

OBJECT_NAME    = STARLINK-36033
OBJECT_ID      = 2025-283R
CENTER_NAME    = EARTH
REF_FRAME      = TEME
TIME_SYSTEM    = UTC
MEAN_ELEMENT_THEORY = SGP/SGP4

EPOCH          = 2025-12-31T04:00:01.998720
MEAN_MOTION    = 15.45029088
ECCENTRICITY   = .000118
INCLINATION    = 53.1601
RA_OF_ASC_NODE = 342.9998
ARG_OF_PERICENTER = 83.8905
MEAN_ANOMALY   = 332.1389

EPHEMERIS_TYPE = 0
CLASSIFICATION_TYPE = U
NORAD_CAT_ID   = 66893
ELEMENT_SET_NO = 999
REV_AT_EPOCH   = 539
BSTAR          = -.48596E-1
MEAN_MOTION_DOT = -.2069788E-1
MEAN_MOTION_DDOT = 0

CCSDS_OMM_VERS = 2.0
CREATION_DATE  = 
ORIGINATOR     = 

OBJECT_NAME    = STARLINK-35718
OBJECT_ID      = 2025-283S
CENTER_NAME    = EARTH
REF_FRAME      = TEME
TIME_SYSTEM    = UTC
MEAN_ELEMENT_THEORY = SGP/SGP4

EPOCH          = 2025-12-31T02:10:19.327008
MEAN_MOTION    = 15.49426730
ECCENTRICITY   = .0001437
INCLINATION    = 53.1591
RA_OF_ASC_NODE = 343.3456
ARG_OF_PERICENTER = 133.7328
MEAN_ANOMALY   = 226.3800

EPHEMERIS_TYPE = 0
CLASSIFICATION_TYPE = U
NORAD_CAT_ID   = 66894
ELEMENT_SET_NO = 999
REV_AT_EPOCH   = 533
BSTAR          = .31E-2
MEAN_MOTION_DOT = .176645E-2
MEAN_MOTION_DDOT = 0

CCSDS_OMM_VERS = 2.0
CREATION_DATE  = 
ORIGINATOR     = 

OBJECT_NAME    = STARLINK-35971
OBJECT_ID      = 2025-283T
CENTER_NAME    = EARTH
REF_FRAME      = TEME
TIME_SYSTEM    = UTC
MEAN_ELEMENT_THEORY = SGP/SGP4

EPOCH          = 2025-12-31T00:00:02.000160
MEAN_MOTION    = 15.49235251
ECCENTRICITY   = .0001617
INCLINATION    = 53.1595
RA_OF_ASC_NODE = 343.7681
ARG_OF_PERICENTER = 110.9668
MEAN_ANOMALY   = 108.0238

EPHEMERIS_TYPE = 0
CLASSIFICATION_TYPE = U
NORAD_CAT_ID   = 66895
ELEMENT_SET_NO = 999
REV_AT_EPOCH   = 536
BSTAR          = -.41986E-1
MEAN_MOTION_DOT = -.2071821E-1
MEAN_MOTION_DDOT = 0

